{
  "norad_id": 51852,
  "name": "STARLINK-3542",
  "history": [
    {
      "epoch": "2026-03-28T20:43:34.090464Z",
      "apogee_km": 540.7190477379827,
      "perigee_km": 538.7647469494841,
      "latitude_deg": -2.6540360972486968e-05,
      "longitude_deg": 155.87750858536148,
      "height_km": 540.7278086179891,
      "semi_major_axis_km": 6917.878897343733,
      "eccentricity": 0.00014125,
      "inclination_deg": 53.2178,
      "raan_deg": 293.0475,
      "arg_perigee_deg": 95.2979,
      "mean_anomaly_deg": 264.8174,
      "mean_motion_rev_day": 15.08840488
    }
  ]
}